KUIPER-00095            
1 65134U 25171C   25355.65778822  .00005410  00000+0  50173-3 0  9998
2 65134  51.8913 134.9857 0004903 220.8975 139.1627 14.95813444 21458
KUIPER-00096            
1 65135U 25171D   25356.69333852  .00003909  00000+0  54088-3 0  9994
2 65135  51.8981 138.5629 0010348 250.4642 109.5203 14.79971800 21499
KUIPER-00097            
1 65136U 25171E   25356.82562357  .00003172  00000+0  44475-3 0  9995
2 65136  51.8999 140.5928 0009721 253.7910 106.1983 14.79944967 21460
KUIPER-00098            
1 65137U 25171F   25356.68800233  .00006388  00000+0  86599-3 0  9993
2 65137  51.8996 143.5891 0007448 237.0435 122.9811 14.79931028 20763
KUIPER-00099            
1 65138U 25171G   25356.12470474  .00003564  00000+0  49680-3 0  9996
2 65138  51.9014 136.0443 0001032 123.4523 236.6538 14.79890499 21479
KUIPER-00100            
1 65139U 25171H   25355.68671164 -.00008684  00000+0 -10036-2 0  9998
2 65139  51.8967 135.4539 0001583 326.0518  34.0345 14.84139588 21445
KUIPER-00102            
1 65140U 25171J   25357.00001157 -.00024852  00000+0 -33627-2 0  9993
2 65140  51.8976 132.1852 0000902  41.3249 138.4767 14.78410827  5418
KUIPER-00103            
1 65141U 25171K   25356.71367637  .00003342  00000+0  46743-3 0  9992
2 65141  51.8985 150.9662 0005653 229.5396 130.5074 14.79916411 21319
