<?xml version="1.0" encoding="UTF-8"?>
<ndm xmlns:xsi="http://www.w3.org/2001/XMLSchema-instance" xsi:noNamespaceSchemaLocation="https://sanaregistry.org/r/ndmxml_unqualified/ndmxml-2.0.0-master-2.0.xsd">
<omm id="CCSDS_OMM_VERS" version="2.0">
<header><CREATION_DATE/><ORIGINATOR/></header><body><segment><metadata><OBJECT_NAME>KUIPER-00095</OBJECT_NAME><OBJECT_ID>2025-171C</OBJECT_ID><CENTER_NAME>EARTH</CENTER_NAME><REF_FRAME>TEME</REF_FRAME><TIME_SYSTEM>UTC</TIME_SYSTEM><MEAN_ELEMENT_THEORY>SGP4</MEAN_ELEMENT_THEORY></metadata><data><meanElements><EPOCH>2025-12-21T15:47:12.902208</EPOCH><MEAN_MOTION>14.95813444</MEAN_MOTION><ECCENTRICITY>.00049039</ECCENTRICITY><INCLINATION>51.8913</INCLINATION><RA_OF_ASC_NODE>134.9857</RA_OF_ASC_NODE><ARG_OF_PERICENTER>220.8975</ARG_OF_PERICENTER><MEAN_ANOMALY>139.1627</MEAN_ANOMALY></meanElements><tleParameters><EPHEMERIS_TYPE>0</EPHEMERIS_TYPE><CLASSIFICATION_TYPE>U</CLASSIFICATION_TYPE><NORAD_CAT_ID>65134</NORAD_CAT_ID><ELEMENT_SET_NO>999</ELEMENT_SET_NO><REV_AT_EPOCH>2145</REV_AT_EPOCH><BSTAR>.50173467E-3</BSTAR><MEAN_MOTION_DOT>.541E-4</MEAN_MOTION_DOT><MEAN_MOTION_DDOT>0</MEAN_MOTION_DDOT></tleParameters></data></segment></body></omm>
<omm id="CCSDS_OMM_VERS" version="2.0">
<header><CREATION_DATE/><ORIGINATOR/></header><body><segment><metadata><OBJECT_NAME>KUIPER-00096</OBJECT_NAME><OBJECT_ID>2025-171D</OBJECT_ID><CENTER_NAME>EARTH</CENTER_NAME><REF_FRAME>TEME</REF_FRAME><TIME_SYSTEM>UTC</TIME_SYSTEM><MEAN_ELEMENT_THEORY>SGP4</MEAN_ELEMENT_THEORY></metadata><data><meanElements><EPOCH>2025-12-22T16:38:24.448128</EPOCH><MEAN_MOTION>14.79971800</MEAN_MOTION><ECCENTRICITY>.00103487</ECCENTRICITY><INCLINATION>51.8981</INCLINATION><RA_OF_ASC_NODE>138.5629</RA_OF_ASC_NODE><ARG_OF_PERICENTER>250.4642</ARG_OF_PERICENTER><MEAN_ANOMALY>109.5203</MEAN_ANOMALY></meanElements><tleParameters><EPHEMERIS_TYPE>0</EPHEMERIS_TYPE><CLASSIFICATION_TYPE>U</CLASSIFICATION_TYPE><NORAD_CAT_ID>65135</NORAD_CAT_ID><ELEMENT_SET_NO>999</ELEMENT_SET_NO><REV_AT_EPOCH>2149</REV_AT_EPOCH><BSTAR>.54087595E-3</BSTAR><MEAN_MOTION_DOT>.3909E-4</MEAN_MOTION_DOT><MEAN_MOTION_DDOT>0</MEAN_MOTION_DDOT></tleParameters></data></segment></body></omm>
<omm id="CCSDS_OMM_VERS" version="2.0">
<header><CREATION_DATE/><ORIGINATOR/></header><body><segment><metadata><OBJECT_NAME>KUIPER-00097</OBJECT_NAME><OBJECT_ID>2025-171E</OBJECT_ID><CENTER_NAME>EARTH</CENTER_NAME><REF_FRAME>TEME</REF_FRAME><TIME_SYSTEM>UTC</TIME_SYSTEM><MEAN_ELEMENT_THEORY>SGP4</MEAN_ELEMENT_THEORY></metadata><data><meanElements><EPOCH>2025-12-22T19:48:53.876448</EPOCH><MEAN_MOTION>14.79944967</MEAN_MOTION><ECCENTRICITY>.00097215</ECCENTRICITY><INCLINATION>51.8999</INCLINATION><RA_OF_ASC_NODE>140.5928</RA_OF_ASC_NODE><ARG_OF_PERICENTER>253.7910</ARG_OF_PERICENTER><MEAN_ANOMALY>106.1983</MEAN_ANOMALY></meanElements><tleParameters><EPHEMERIS_TYPE>0</EPHEMERIS_TYPE><CLASSIFICATION_TYPE>U</CLASSIFICATION_TYPE><NORAD_CAT_ID>65136</NORAD_CAT_ID><ELEMENT_SET_NO>999</ELEMENT_SET_NO><REV_AT_EPOCH>2146</REV_AT_EPOCH><BSTAR>.44475241E-3</BSTAR><MEAN_MOTION_DOT>.3172E-4</MEAN_MOTION_DOT><MEAN_MOTION_DDOT>0</MEAN_MOTION_DDOT></tleParameters></data></segment></body></omm>
<omm id="CCSDS_OMM_VERS" version="2.0">
<header><CREATION_DATE/><ORIGINATOR/></header><body><segment><metadata><OBJECT_NAME>KUIPER-00098</OBJECT_NAME><OBJECT_ID>2025-171F</OBJECT_ID><CENTER_NAME>EARTH</CENTER_NAME><REF_FRAME>TEME</REF_FRAME><TIME_SYSTEM>UTC</TIME_SYSTEM><MEAN_ELEMENT_THEORY>SGP4</MEAN_ELEMENT_THEORY></metadata><data><meanElements><EPOCH>2025-12-22T16:30:43.401312</EPOCH><MEAN_MOTION>14.79931028</MEAN_MOTION><ECCENTRICITY>.00074486</ECCENTRICITY><INCLINATION>51.8996</INCLINATION><RA_OF_ASC_NODE>143.5891</RA_OF_ASC_NODE><ARG_OF_PERICENTER>237.0435</ARG_OF_PERICENTER><MEAN_ANOMALY>122.9811</MEAN_ANOMALY></meanElements><tleParameters><EPHEMERIS_TYPE>0</EPHEMERIS_TYPE><CLASSIFICATION_TYPE>U</CLASSIFICATION_TYPE><NORAD_CAT_ID>65137</NORAD_CAT_ID><ELEMENT_SET_NO>999</ELEMENT_SET_NO><REV_AT_EPOCH>2076</REV_AT_EPOCH><BSTAR>.865986E-3</BSTAR><MEAN_MOTION_DOT>.6388E-4</MEAN_MOTION_DOT><MEAN_MOTION_DDOT>0</MEAN_MOTION_DDOT></tleParameters></data></segment></body></omm>
<omm id="CCSDS_OMM_VERS" version="2.0">
<header><CREATION_DATE/><ORIGINATOR/></header><body><segment><metadata><OBJECT_NAME>KUIPER-00099</OBJECT_NAME><OBJECT_ID>2025-171G</OBJECT_ID><CENTER_NAME>EARTH</CENTER_NAME><REF_FRAME>TEME</REF_FRAME><TIME_SYSTEM>UTC</TIME_SYSTEM><MEAN_ELEMENT_THEORY>SGP4</MEAN_ELEMENT_THEORY></metadata><data><meanElements><EPOCH>2025-12-22T02:59:34.489536</EPOCH><MEAN_MOTION>14.79890499</MEAN_MOTION><ECCENTRICITY>.00010323</ECCENTRICITY><INCLINATION>51.9014</INCLINATION><RA_OF_ASC_NODE>136.0443</RA_OF_ASC_NODE><ARG_OF_PERICENTER>123.4523</ARG_OF_PERICENTER><MEAN_ANOMALY>236.6538</MEAN_ANOMALY></meanElements><tleParameters><EPHEMERIS_TYPE>0</EPHEMERIS_TYPE><CLASSIFICATION_TYPE>U</CLASSIFICATION_TYPE><NORAD_CAT_ID>65138</NORAD_CAT_ID><ELEMENT_SET_NO>999</ELEMENT_SET_NO><REV_AT_EPOCH>2147</REV_AT_EPOCH><BSTAR>.49679847E-3</BSTAR><MEAN_MOTION_DOT>.3564E-4</MEAN_MOTION_DOT><MEAN_MOTION_DDOT>0</MEAN_MOTION_DDOT></tleParameters></data></segment></body></omm>
<omm id="CCSDS_OMM_VERS" version="2.0">
<header><CREATION_DATE/><ORIGINATOR/></header><body><segment><metadata><OBJECT_NAME>KUIPER-00100</OBJECT_NAME><OBJECT_ID>2025-171H</OBJECT_ID><CENTER_NAME>EARTH</CENTER_NAME><REF_FRAME>TEME</REF_FRAME><TIME_SYSTEM>UTC</TIME_SYSTEM><MEAN_ELEMENT_THEORY>SGP4</MEAN_ELEMENT_THEORY></metadata><data><meanElements><EPOCH>2025-12-21T16:28:51.885696</EPOCH><MEAN_MOTION>14.84139588</MEAN_MOTION><ECCENTRICITY>.0001583</ECCENTRICITY><INCLINATION>51.8967</INCLINATION><RA_OF_ASC_NODE>135.4539</RA_OF_ASC_NODE><ARG_OF_PERICENTER>326.0518</ARG_OF_PERICENTER><MEAN_ANOMALY>34.0345</MEAN_ANOMALY></meanElements><tleParameters><EPHEMERIS_TYPE>0</EPHEMERIS_TYPE><CLASSIFICATION_TYPE>U</CLASSIFICATION_TYPE><NORAD_CAT_ID>65139</NORAD_CAT_ID><ELEMENT_SET_NO>999</ELEMENT_SET_NO><REV_AT_EPOCH>2144</REV_AT_EPOCH><BSTAR>-.10036251E-2</BSTAR><MEAN_MOTION_DOT>-.8684E-4</MEAN_MOTION_DOT><MEAN_MOTION_DDOT>0</MEAN_MOTION_DDOT></tleParameters></data></segment></body></omm>
<omm id="CCSDS_OMM_VERS" version="2.0">
<header><CREATION_DATE/><ORIGINATOR/></header><body><segment><metadata><OBJECT_NAME>KUIPER-00102</OBJECT_NAME><OBJECT_ID>2025-171J</OBJECT_ID><CENTER_NAME>EARTH</CENTER_NAME><REF_FRAME>TEME</REF_FRAME><TIME_SYSTEM>UTC</TIME_SYSTEM><MEAN_ELEMENT_THEORY>SGP4</MEAN_ELEMENT_THEORY></metadata><data><meanElements><EPOCH>2025-12-23T00:00:00.999648</EPOCH><MEAN_MOTION>14.78410827</MEAN_MOTION><ECCENTRICITY>.00009022</ECCENTRICITY><INCLINATION>51.8976</INCLINATION><RA_OF_ASC_NODE>132.1852</RA_OF_ASC_NODE><ARG_OF_PERICENTER>41.3249</ARG_OF_PERICENTER><MEAN_ANOMALY>138.4767</MEAN_ANOMALY></meanElements><tleParameters><EPHEMERIS_TYPE>0</EPHEMERIS_TYPE><CLASSIFICATION_TYPE>U</CLASSIFICATION_TYPE><NORAD_CAT_ID>65140</NORAD_CAT_ID><ELEMENT_SET_NO>999</ELEMENT_SET_NO><REV_AT_EPOCH>541</REV_AT_EPOCH><BSTAR>-.33626908E-2</BSTAR><MEAN_MOTION_DOT>-.24852E-3</MEAN_MOTION_DOT><MEAN_MOTION_DDOT>0</MEAN_MOTION_DDOT></tleParameters></data></segment></body></omm>
<omm id="CCSDS_OMM_VERS" version="2.0">
<header><CREATION_DATE/><ORIGINATOR/></header><body><segment><metadata><OBJECT_NAME>KUIPER-00103</OBJECT_NAME><OBJECT_ID>2025-171K</OBJECT_ID><CENTER_NAME>EARTH</CENTER_NAME><REF_FRAME>TEME</REF_FRAME><TIME_SYSTEM>UTC</TIME_SYSTEM><MEAN_ELEMENT_THEORY>SGP4</MEAN_ELEMENT_THEORY></metadata><data><meanElements><EPOCH>2025-12-22T17:07:41.638368</EPOCH><MEAN_MOTION>14.79916411</MEAN_MOTION><ECCENTRICITY>.00056533</ECCENTRICITY><INCLINATION>51.8985</INCLINATION><RA_OF_ASC_NODE>150.9662</RA_OF_ASC_NODE><ARG_OF_PERICENTER>229.5396</ARG_OF_PERICENTER><MEAN_ANOMALY>130.5074</MEAN_ANOMALY></meanElements><tleParameters><EPHEMERIS_TYPE>0</EPHEMERIS_TYPE><CLASSIFICATION_TYPE>U</CLASSIFICATION_TYPE><NORAD_CAT_ID>65141</NORAD_CAT_ID><ELEMENT_SET_NO>999</ELEMENT_SET_NO><REV_AT_EPOCH>2131</REV_AT_EPOCH><BSTAR>.4674276E-3</BSTAR><MEAN_MOTION_DOT>.3342E-4</MEAN_MOTION_DOT><MEAN_MOTION_DDOT>0</MEAN_MOTION_DDOT></tleParameters></data></segment></body></omm>

</ndm>
